{
"type": "FeatureCollection",
"name": "1ados",
"crs": { "type": "name", "properties": { "name": "urn:ogc:def:crs:OGC:1.3:CRS84" } },
"features": [
{"type":"Feature","properties":{"recibo":"BA-2916807-F1E748C33E1D47D9BD4DF478BA4DE82F","Area_ha":44.4816},"geometry":{"type":"MultiPolygon","coordinates":[[[[-40.10989583,-15.61113222],[-40.11070868,-15.61390517],[-40.12004957,-15.61432252],[-40.12035398,-15.61094049],[-40.11637154,-15.61053804],[-40.11276916,-15.61017394],[-40.10923722,-15.60949472],[-40.1097725,-15.60982139],[-40.10979528,-15.60993306],[-40.10989583,-15.61113222]]]]}}
]
}
